{"type": "FeatureCollection", "features": [ {"type": "Feature", "properties": {"norad_id": 43010, "name": "FENGYUN 3D", "group": "weather", "lat": 40.16171945585718, "lon": 130.7378046223326, "alt_km": 823.2244964125339, "timestamp": "2025-12-02T21:34:00.915731+00:00", "meta": {"OBJECT_NAME": "FENGYUN 3D", "OBJECT_ID": "2017-072A", "EPOCH": "2025-12-02T12:27:22.605696", "MEAN_MOTION": 14.19678905, "ECCENTRICITY": 5.66e-05, "INCLINATION": 98.9879, "RA_OF_ASC_NODE": 302.6769, "ARG_OF_PERICENTER": 226.7421, "MEAN_ANOMALY": 133.3708, "EPHEMERIS_TYPE": 0, "CLASSIFICATION_TYPE": "U", "NORAD_CAT_ID": 43010, "ELEMENT_SET_NO": 999, "REV_AT_EPOCH": 41708, "BSTAR": 9.3768e-05, "MEAN_MOTION_DOT": 1.52e-06, "MEAN_MOTION_DDOT": 0}, "tle": {"line1": "1 43010U 17072A   25336.51901164  .00000152  00000+0  93768-4 0  9995", "line2": "2 43010  98.9879 302.6769 0000566 226.7421 133.3708 14.19678905417089"}}, "geometry": {"type": "Point", "coordinates": [130.7378046223326, 40.16171945585718]}}, {"type": "Feature", "properties": {"norad_id": 43013, "name": "NOAA 20 (JPSS-1)", "group": "weather", "lat": -61.51177067905085, "lon": -70.19325744665474, "alt_km": 835.5160284011245, "timestamp": "2025-12-02T21:34:00.915751+00:00", "meta": {"OBJECT_NAME": "NOAA 20 (JPSS-1)", "OBJECT_ID": "2017-073A", "EPOCH": "2025-12-02T10:01:14.414016", "MEAN_MOTION": 14.19521277, "ECCENTRICITY": 0.0002043, "INCLINATION": 98.7583, "RA_OF_ASC_NODE": 272.8279, "ARG_OF_PERICENTER": 102.0829, "MEAN_ANOMALY": 258.0576, "EPHEMERIS_TYPE": 0, "CLASSIFICATION_TYPE": "U", "NORAD_CAT_ID": 43013, "ELEMENT_SET_NO": 999, "REV_AT_EPOCH": 41655, "BSTAR": 8.4566e-05, "MEAN_MOTION_DOT": 1.34e-06, "MEAN_MOTION_DDOT": 0}, "tle": {"line1": "1 43013U 17073A   25336.41752794  .00000134  00000+0  84566-4 0  9997", "line2": "2 43013  98.7583 272.8279 0002043 102.0829 258.0576 14.19521277416554"}}, "geometry": {"type": "Point", "coordinates": [-70.19325744665474, -61.51177067905085]}}, {"type": "Feature", "properties": {"norad_id": 43226, "name": "GOES 17", "group": "weather", "lat": -0.2618593792150448, "lon": -54.003163046451235, "alt_km": 35774.60275305632, "timestamp": "2025-12-02T21:34:00.915771+00:00", "meta": {"OBJECT_NAME": "GOES 17", "OBJECT_ID": "2018-022A", "EPOCH": "2025-12-02T09:24:38.486304", "MEAN_MOTION": 1.00271944, "ECCENTRICITY": 0.0003372, "INCLINATION": 0.4307, "RA_OF_ASC_NODE": 89.3511, "ARG_OF_PERICENTER": 180.5344, "MEAN_ANOMALY": 213.2726, "EPHEMERIS_TYPE": 0, "CLASSIFICATION_TYPE": "U", "NORAD_CAT_ID": 43226, "ELEMENT_SET_NO": 999, "REV_AT_EPOCH": 2845, "BSTAR": 0, "MEAN_MOTION_DOT": -1.62e-06, "MEAN_MOTION_DDOT": 0}, "tle": {"line1": "1 43226U 18022A   25336.39211211 -.00000162  00000+0  00000+0 0  9997", "line2": "2 43226   0.4307  89.3511 0003372 180.5344 213.2726  1.00271944 28450"}}, "geometry": {"type": "Point", "coordinates": [-54.003163046451235, -0.2618593792150448]}}, {"type": "Feature", "properties": {"norad_id": 43491, "name": "FENGYUN 2H", "group": "weather", "lat": 1.3982193046527716, "lon": 114.78346917834457, "alt_km": 35793.49526132215, "timestamp": "2025-12-02T21:34:00.915785+00:00", "meta": {"OBJECT_NAME": "FENGYUN 2H", "OBJECT_ID": "2018-050A", "EPOCH": "2025-12-02T09:01:29.881920", "MEAN_MOTION": 1.00271536, "ECCENTRICITY": 0.0002858, "INCLINATION": 2.5218, "RA_OF_ASC_NODE": 81.4449, "ARG_OF_PERICENTER": 161.6312, "MEAN_ANOMALY": 43.1387, "EPHEMERIS_TYPE": 0, "CLASSIFICATION_TYPE": "U", "NORAD_CAT_ID": 43491, "ELEMENT_SET_NO": 999, "REV_AT_EPOCH": 2746, "BSTAR": 0, "MEAN_MOTION_DOT": -1.1e-06, "MEAN_MOTION_DDOT": 0}, "tle": {"line1": "1 43491U 18050A   25336.37604030 -.00000110  00000+0  00000+0 0  9998", "line2": "2 43491   2.5218  81.4449 0002858 161.6312  43.1387  1.00271536 27464"}}, "geometry": {"type": "Point", "coordinates": [114.78346917834457, 1.3982193046527716]}}, {"type": "Feature", "properties": {"norad_id": 43689, "name": "METOP-C", "group": "weather", "lat": 8.090917738482228, "lon": 33.57180144059198, "alt_km": 821.2553388184624, "timestamp": "2025-12-02T21:34:00.915796+00:00", "meta": {"OBJECT_NAME": "METOP-C", "OBJECT_ID": "2018-087A", "EPOCH": "2025-12-02T11:23:33.743904", "MEAN_MOTION": 14.21505574, "ECCENTRICITY": 0.0001741, "INCLINATION": 98.6944, "RA_OF_ASC_NODE": 34.4008, "ARG_OF_PERICENTER": 59.0934, "MEAN_ANOMALY": 301.0415, "EPHEMERIS_TYPE": 0, "CLASSIFICATION_TYPE": "U", "NORAD_CAT_ID": 43689, "ELEMENT_SET_NO": 999, "REV_AT_EPOCH": 36688, "BSTAR": 0.00011383, "MEAN_MOTION_DOT": 2.05e-06, "MEAN_MOTION_DDOT": 0}, "tle": {"line1": "1 43689U 18087A   25336.47469611  .00000205  00000+0  11383-3 0  9996", "line2": "2 43689  98.6944  34.4008 0001741  59.0934 301.0415 14.21505574366883"}}, "geometry": {"type": "Point", "coordinates": [33.57180144059198, 8.090917738482228]}}, {"type": "Feature", "properties": {"norad_id": 43823, "name": "GEO-KOMPSAT-2A", "group": "weather", "lat": 0.032111844135340364, "lon": 163.73423228397516, "alt_km": 35784.43647588368, "timestamp": "2025-12-02T21:34:00.915809+00:00", "meta": {"OBJECT_NAME": "GEO-KOMPSAT-2A", "OBJECT_ID": "2018-100A", "EPOCH": "2025-12-02T05:57:38.748960", "MEAN_MOTION": 1.00270582, "ECCENTRICITY": 5.7e-05, "INCLINATION": 0.0606, "RA_OF_ASC_NODE": 123.2735, "ARG_OF_PERICENTER": 70.3508, "MEAN_ANOMALY": 95.4102, "EPHEMERIS_TYPE": 0, "CLASSIFICATION_TYPE": "U", "NORAD_CAT_ID": 43823, "ELEMENT_SET_NO": 999, "REV_AT_EPOCH": 2565, "BSTAR": 0, "MEAN_MOTION_DOT": -3.23e-06, "MEAN_MOTION_DDOT": 0}, "tle": {"line1": "1 43823U 18100A   25336.24836515 -.00000323  00000+0  00000+0 0  9990", "line2": "2 43823   0.0606 123.2735 0000570  70.3508  95.4102  1.00270582 25656"}}, "geometry": {"type": "Point", "coordinates": [163.73423228397516, 0.032111844135340364]}}, {"type": "Feature", "properties": {"norad_id": 44387, "name": "METEOR-M2 2", "group": "weather", "lat": -16.246415447772332, "lon": -40.8764575318199, "alt_km": 816.2666458720532, "timestamp": "2025-12-02T21:34:00.915821+00:00", "meta": {"OBJECT_NAME": "METEOR-M2 2", "OBJECT_ID": "2019-038A", "EPOCH": "2025-12-02T13:12:50.241600", "MEAN_MOTION": 14.24284401, "ECCENTRICITY": 8.37e-05, "INCLINATION": 98.8962, "RA_OF_ASC_NODE": 316.1553, "ARG_OF_PERICENTER": 169.8315, "MEAN_ANOMALY": 190.288, "EPHEMERIS_TYPE": 0, "CLASSIFICATION_TYPE": "U", "NORAD_CAT_ID": 44387, "ELEMENT_SET_NO": 999, "REV_AT_EPOCH": 33330, "BSTAR": 0.00012133, "MEAN_MOTION_DOT": 2.34e-06, "MEAN_MOTION_DDOT": 0}, "tle": {"line1": "1 44387U 19038A   25336.55058150  .00000234  00000+0  12133-3 0  9996", "line2": "2 44387  98.8962 316.1553 0000837 169.8315 190.2880 14.24284401333305"}}, "geometry": {"type": "Point", "coordinates": [-40.8764575318199, -16.246415447772332]}}, {"type": "Feature", "properties": {"norad_id": 47719, "name": "ARKTIKA-M 1", "group": "weather", "lat": 61.43071871501752, "lon": -162.84278340931647, "alt_km": 37162.50036102027, "timestamp": "2025-12-02T21:34:00.915834+00:00", "meta": {"OBJECT_NAME": "ARKTIKA-M 1", "OBJECT_ID": "2021-016A", "EPOCH": "2025-12-01T02:41:41.634816", "MEAN_MOTION": 2.00613156, "ECCENTRICITY": 0.71974708, "INCLINATION": 63.1756, "RA_OF_ASC_NODE": 85.6045, "ARG_OF_PERICENTER": 269.084, "MEAN_ANOMALY": 15.7076, "EPHEMERIS_TYPE": 0, "CLASSIFICATION_TYPE": "U", "NORAD_CAT_ID": 47719, "ELEMENT_SET_NO": 999, "REV_AT_EPOCH": 3481, "BSTAR": 0, "MEAN_MOTION_DOT": -1.2e-07, "MEAN_MOTION_DDOT": 0}, "tle": {"line1": "1 47719U 21016A   25335.11228744 -.00000012  00000+0  00000+0 0  9997", "line2": "2 47719  63.1756  85.6045 7197470 269.0840  15.7076  2.00613156 34816"}}, "geometry": {"type": "Point", "coordinates": [-162.84278340931647, 61.43071871501752]}}, {"type": "Feature", "properties": {"norad_id": 49008, "name": "FENGYUN 3E", "group": "weather", "lat": 77.39124170059497, "lon": -158.9656699718597, "alt_km": 818.8426950609319, "timestamp": "2025-12-02T21:34:00.915848+00:00", "meta": {"OBJECT_NAME": "FENGYUN 3E", "OBJECT_ID": "2021-062A", "EPOCH": "2025-12-02T12:38:44.736288", "MEAN_MOTION": 14.19877785, "ECCENTRICITY": 7.89e-05, "INCLINATION": 98.7476, "RA_OF_ASC_NODE": 337.1692, "ARG_OF_PERICENTER": 329.3866, "MEAN_ANOMALY": 30.7264, "EPHEMERIS_TYPE": 0, "CLASSIFICATION_TYPE": "U", "NORAD_CAT_ID": 49008, "ELEMENT_SET_NO": 999, "REV_AT_EPOCH": 22867, "BSTAR": 4.4387e-05, "MEAN_MOTION_DOT": 5e-07, "MEAN_MOTION_DDOT": 0}, "tle": {"line1": "1 49008U 21062A   25336.52690667  .00000050  00000+0  44387-4 0  9996", "line2": "2 49008  98.7476 337.1692 0000789 329.3866  30.7264 14.19877785228670"}}, "geometry": {"type": "Point", "coordinates": [-158.9656699718597, 77.39124170059497]}}, {"type": "Feature", "properties": {"norad_id": 51850, "name": "GOES 18", "group": "weather", "lat": -0.00969414864919726, "lon": -101.53119567783526, "alt_km": 35783.840289967135, "timestamp": "2025-12-02T21:34:00.915860+00:00", "meta": {"OBJECT_NAME": "GOES 18", "OBJECT_ID": "2022-021A", "EPOCH": "2025-12-02T12:16:38.556768", "MEAN_MOTION": 1.00270221, "ECCENTRICITY": 7.13e-05, "INCLINATION": 0.0358, "RA_OF_ASC_NODE": 129.1969, "ARG_OF_PERICENTER": 158.0136, "MEAN_ANOMALY": 191.5668, "EPHEMERIS_TYPE": 0, "CLASSIFICATION_TYPE": "U", "NORAD_CAT_ID": 51850, "ELEMENT_SET_NO": 999, "REV_AT_EPOCH": 462, "BSTAR": 0, "MEAN_MOTION_DOT": 1.17e-06, "MEAN_MOTION_DDOT": 0}, "tle": {"line1": "1 51850U 22021A   25336.51155737  .00000117  00000+0  00000+0 0  9996", "line2": "2 51850   0.0358 129.1969 0000713 158.0136 191.5668  1.00270221  4622"}}, "geometry": {"type": "Point", "coordinates": [-101.53119567783526, -0.00969414864919726]}}]}